[{"OBJECT_NAME":"STARLINK-32211","OBJECT_ID":"2024-131R","EPOCH":"2026-03-09T22:42:33.679296","MEAN_MOTION":15.30190646,"ECCENTRICITY":0.00011593,"INCLINATION":53.1608,"RA_OF_ASC_NODE":51.5513,"ARG_OF_PERICENTER":90.7986,"MEAN_ANOMALY":269.3148,"EPHEMERIS_TYPE":0,"CLASSIFICATION_TYPE":"U","NORAD_CAT_ID":60270,"ELEMENT_SET_NO":999,"REV_AT_EPOCH":9175,"BSTAR":1.1597233e-5,"MEAN_MOTION_DOT":-1.6e-7,"MEAN_MOTION_DDOT":0},{"OBJECT_NAME":"FENGYUN 1C DEB","OBJECT_ID":"1999-025FBF","EPOCH":"2026-03-06T07:33:49.292640","MEAN_MOTION":15.04395515,"ECCENTRICITY":0.01189701,"INCLINATION":98.9505,"RA_OF_ASC_NODE":84.7158,"ARG_OF_PERICENTER":75.0888,"MEAN_ANOMALY":286.3472,"EPHEMERIS_TYPE":0,"CLASSIFICATION_TYPE":"U","NORAD_CAT_ID":47029,"ELEMENT_SET_NO":999,"REV_AT_EPOCH":4330,"BSTAR":0.0027080259,"MEAN_MOTION_DOT":0.00044409,"MEAN_MOTION_DDOT":0}]
